DATA_TYPE BULLETIN IMS1.0:short
NORSAR's Event Warning System (NEWS)
EVENT   112460 Southeast of Honshu, Japan                                       
   Date       Time        Err   RMS Latitude Longitude  Smaj  Smin  Az Depth   Err Ndef Nsta Gap  mdist  Mdist Qual   Author      OrigID
2015/01/25 10:40:41.97  35.09  1.64  30.1956  137.0056 1904.  622. 101  25.0f         6    4 346  66.50  79.10 a i uk NEWS        112460
 ( Uncertainty: 95 % ellipse )

Magnitude           Author
mb     4.8          NEWS

Sta     Dist  EvAz Phase        Time      TRes  Azim AzRes   Slow   SRes Def   SNR       Amp   Per Qual Magnitude    ArrID
SPITS  66.50 348.9 P        10:51:28.712  -0.3  81.5  27.2    5.5   -0.9 T_S  51.6       0.3  0.26 a__ mb     3.7    81679
ARCES  69.09 339.5 P        10:51:45.849   0.4  63.5   3.9    5.5   -0.7 TAS 502.9      44.5  0.42 a__ mb     5.7    81669
ARCES  69.09 339.5 pP       10:51:53.125  -0.3  63.7   4.1    5.7   -0.6 _A_   8.2       1.3  0.24 a__ mb     4.4    81671
HFA0   78.74 334.8 P        10:52:39.669  -2.3  16.4 -31.1    1.3   -4.2 T__ 240.7      39.2  0.31 a__ mb     5.8    81673
NORES  79.10 336.0 P        10:52:46.237   2.2  84.5  38.6    8.0    2.5 T__ 373.6       1.5  0.24 a__ mb     4.5    81678
NORES  79.10 336.0 pP       10:52:49.513  -2.6  56.5  10.6   12.2    6.7 _A_  44.0       1.9  0.27 a__ mb     4.5    81684

STOP
