DATA_TYPE BULLETIN IMS1.0:short
ISC Comprehensive Bulletin
Event 14340585 Off coast of central Chile
   Date       Time        Err   RMS Latitude Longitude  Smaj  Smin  Az Depth   Err Ndef Nsta Gap  mdist  Mdist Qual   Author      OrigID
2010/02/27 06:34:14.10              -35.8900  -73.0400                                        19                      CSEM      13895753

Magnitude  Err Nsta Author      OrigID
Mw     8.8          CSEM      13895753
ML     8.3          TEH       13895753
MS     8.7          MOS       13895753
Mw     8.8          NEIC      13895753
Mw     8.1          BGS       13895753
mb     7.1          MDD       13895753
mb     5.5          STR       13895753

Sta     Dist  EvAz Phase        Time      TRes  Azim AzRes   Slow   SRes Def   SNR       Amp   Per Qual Magnitude    ArrID
SAN     3.12  39.6 P        06:35:02.6                                   ___                        __                   1
PEL     3.36  36.0 P        06:35:05.8                                   ___                        de                   1
PLCA    5.22 158.7 P        06:35:23.7                                   ___                        __                   1
PLCA    5.22 158.7 pmax                                                  ___                        __                   1
PLCA    5.22 158.7 Pn       06:35:23.675       329.4        13.60        ___ 331.8      24.2  0.33  __                   1
PLCA    5.22 158.7 Pg       06:35:35.8         334.1        16.30        ___  25.6     422.6  0.33  __                   1
CFAA    5.85  44.5 Pn       06:35:38.15        213.9        12.40        ___ 344.4       7.7  0.33  __                   1
CFAA    5.85  44.5 Pg       06:35:54.075       213.7        15.00        ___  27.7     165.8  0.33  __                   1
CFAA    5.85  44.5 Sn       06:36:59.9         215.0        14.70        ___   5.8    1266.8  0.33  __                   1
CFAA    5.85  44.5 Lg       06:37:25.275       121.7        18.70        ___   6.0    1926.6  0.33  __                   1
TRQA    9.11 107.0 P        06:36:21.2                                   ___                        __                   1
TRQA    9.11 107.0 Pn       06:36:21.4                                   ___                        _e                   1
LVC    13.71  16.3 Pn       06:37:25.2                                   ___                        _e                   1
LVC    13.71  16.3 P        06:37:26.7                                   ___                        __                   1
CPUP   16.47  59.0 P        06:37:58.8                                   ___                        __                   1
CPUP   16.47  59.0          06:41:10.6                                   ___                        __                   1
CPUP   16.47  59.0 pmax                                                  ___                        __                   1
CPUP   16.47  59.0 Pn       06:37:58.775       217.2        15.60        ___  35.6       2.4  0.33  __                   1
CPUP   16.47  59.0 Sn       06:41:10.6         208.9        19.00        ___   1.1                  __                   1
EFI    19.07 150.5 P        06:38:25.3                                   ___                        _e                   1
EFI    19.07 150.5 pmax                                                  ___         10000.0  1.90  __                   1
USHA   19.21 171.9 P        06:38:29.962       339.9         8.80        ___  30.2      13.7  0.33  __                   1
USHA   19.21 171.9 S        06:42:03.737       329.5        19.90        ___   1.4      17.4  0.33  __                   1
USHA   19.21 171.9 LR       06:46:03.245       321.5        37.80        ___       5659238.5 18.98  __                   1
LPAZ   20.01  13.9 P        06:38:47.4                                   ___                        __                   1
LPAZ   20.01  13.9 P        06:38:47.5                                   ___                        __                   1
LPAZ   20.01  13.9 P        06:38:47.45        182.8         6.80        ___ 186.6     205.9  0.80  __                   1
LPAZ   20.01  13.9 S        06:42:39.25        197.3        19.40        ___   1.5    1104.8  1.15  __                   1
LPAZ   20.01  13.9 LR       06:47:21.092       173.5        39.20        ___       3534273.8 19.73  __                   1
SIV    22.51  31.4 P        06:39:11.16        228.1        10.90        ___ 214.5     941.9  1.02  __                   1
SIV    22.51  31.4 S        06:43:26.16        258.1        19.60        ___   2.8     735.4  0.82  __                   1
SIV    22.51  31.4 Lg       06:46:08.7         107.3        19.10        ___   1.9     661.7  1.07  __                   1
SIV    22.51  31.4 LR       06:49:27.581       211.5        40.60        ___       4410030.9 19.45  __                   1
NNA    24.05 350.8 P        06:39:28.001                                 ___                        _i                   1
NNA    24.05 350.8 P        06:39:28.0                                   ___                        __                   1
NNA    24.05 350.8 P        06:39:27.1                                   ___  27.4    4187.2  1.00  __                   1
NNA    24.05 350.8 P        06:39:28.8                                   ___                        _i                   1
NNA    24.05 350.8 P        06:39:26.55        187.4         8.50        ___  23.6     152.9  0.96  __                   1
NNA    24.05 350.8 S        06:44:15.425       245.2        18.60        ___   2.6     576.2  1.04  __                   1
NNA    24.05 350.8 Lg       06:47:00.575        72.5        19.10        ___   4.4     201.6  1.08  __                   1
SAML   28.28  20.9 P        06:40:05.1                                   ___                        __                   1
ATAH   29.04 349.0 P        06:40:14.525       170.1         7.60        ___  20.4      38.3  1.08  __                   1
ATAH   29.04 349.0 S        06:45:28.025        99.4        15.20        ___   1.7     271.9  0.98  __                   1
PMSA   29.42 172.2 P        06:40:11.485       348.8         9.70        ___  15.8     265.5  0.94  __                   1
PMSA   29.42 172.2 LR       06:51:14.277       339.0        35.20        ___                 21.21  __                   1
BDFB   30.09  54.4 P        06:40:19.2                                   ___                        __                   1
BDFB   30.09  54.4 S        06:45:18.9                                   ___                        __                   1
BDFB   30.09  54.4 pmax                                                  ___                        __                   1
BDFB   30.09  54.4 smax                                                  ___                        __                   1
BDFB   30.09  54.4 P        06:40:19.2         219.4         7.50        ___  60.6     172.6  1.06  __                   1
BDFB   30.09  54.4 S        06:45:18.91        114.3        18.90        ___   1.6     495.4  0.90  __                   1
BDFB   30.09  54.4 LR       06:53:50.9          89.0        39.30        ___        523136.4 20.92  __                   1
HOPE   31.21 137.6 P        06:40:26.7                                   ___  13.7    4428.1  0.80  __                   1
RPN    32.01 275.5 P        06:40:42.9                                   ___  11.7    3482.2  1.40  __                   1
RPN    32.01 275.5 P        06:40:37.9                                   ___                        __                   1
RPN    32.01 275.5 P        06:40:37.9         204.1         1.80        ___   1.7      79.2  1.12  __                   1
PINO   35.92 350.5 P        06:47:13.5                                   ___                        _e                   1
OTAV   36.29 350.8 P        06:41:17.9                                   ___                        __                   1
ROSC   40.55 358.0 P        06:41:53.5                                   ___                        _e                   1
ROSC   40.55 358.0 P        06:41:53.463       116.4         4.30        ___  32.3      81.0  0.92  __                   1
ROSC   40.55 358.0 S        06:48:03.813        66.0        19.90        ___   1.8     188.6  1.12  __                   1
BCIP   45.27 350.5 P        06:42:31.3                                   ___                        __                   1
RCBR   45.34  57.6 P        06:42:29.6                                   ___                        __                   1
RCBR   45.34  57.6 P        06:42:28.919       209.6         9.30        ___  33.8     166.1  0.98  __                   1
RCBR   45.34  57.6 S        06:49:13.919       149.5        19.90        ___   1.2      57.1  0.86  __                   1
RCBR   45.34  57.6 LR       07:02:51.338       210.0        38.00        ___                 20.85  __                   1
PCRV   46.50  11.4 LR       07:05:53.961       180.5        40.80        ___       4711695.1 18.01  __                   1
HDC    46.82 345.0 P        06:42:44.9                                   ___                        __                   1
JTS    47.29 343.9 P        06:42:46.001                                 ___                        _i                   1
JTS    47.29 343.9 P        06:42:46.6                                   ___                        __                   1
JTS    47.29 343.9 P        06:42:46.9                                   ___  23.4    2371.8  1.10  __                   1
JTS    47.29 343.9 P        06:42:46.3                                   ___                        _i                   1
JTS    47.29 343.9 pmax                                                  ___                        __                   1
JTS    47.29 343.9 P        06:42:46.369       153.0         4.40        ___  33.1      68.7  0.91  __                   1
JTS    47.29 343.9 S        06:49:56.219       218.7        15.90        ___   1.6     103.7  1.14  __                   1
JTS    47.29 343.9 LR       06:58:56.534       146.0        31.30        ___       3179525.5 21.27  __                   1
VNA3   47.93 157.1 P        06:42:44.443                                 ___                        __                   1
TRIS   48.09 110.4 P        06:42:50.0                                   ___                        _e                   1
VNA1   48.27 156.2 P        06:42:47.523                                 ___                        __                   1
VNA2   48.60 156.5 P        06:42:50.027                                 ___                        __                   1
GRGR   48.96  14.8 P        06:42:59.0                                   ___                        __                   1
CRIN   50.11 342.1 P        06:43:08.8                                   ___                        __                   1
SNAA   50.16 157.2 P        06:43:01.001                                 ___                        ce                   1
SNAA   50.16 157.2 P        06:43:01.618                                 ___                        __                   1
SNAA   50.16 157.2 P        06:43:01.5                                   ___                        ce                   1
SNAA   50.16 157.2 P        06:43:03.73                                  ___                        _e                   1
SNAA   50.16 157.2 P        06:43:01.98                                  ___                        _e                   1
SNAA   50.16 157.2 P        06:43:01.5                                   ___                        _e                   1
SNAA   50.16 157.2 MLR                                                   ___                        __                   1
SNAA   50.16 157.2 pmax                                                  ___                        __                   1
SNAA   50.16 157.2 P        06:43:01.412       280.4         6.90        ___ 111.8     154.4  0.82  __                   1
SNAA   50.16 157.2 S        06:50:06.412       243.2        12.70        ___   1.6      40.6  0.82  __                   1
SNAA   50.16 157.2 LR       07:05:28.343       283.5        37.70        ___       1275271.8 18.25  __                   1
BBGH   50.41  17.1 P        06:43:09.2                                   ___                        __                   1
FDF    51.59  14.7 P        06:43:17.2                                   ___                        __                   1
FDF    51.59  14.7 P        06:43:16.4                                   ___                        _e                   1
FDF    51.59  14.7 pmax                                                  ___         10000.0  1.10  __                   1
APG    53.23 338.8 P        06:43:30.7         170.1        11.30        ___  37.4     341.8  0.93  __                   1
ICMP   53.84   7.7 P        06:43:33.4                                   ___                        _e                   1
CRPR   53.89   7.0 P        06:43:33.6                                   ___                        _e                   1
SEUS   53.94  11.9 P        06:43:34.1                                   ___                        __                   1
OBIP   53.98   7.6 P        06:43:34.4                                   ___                        _e                   1
MTDJ   53.99 354.7 P        06:43:34.9                                   ___                        __                   1
CELP   54.02   7.6 P        06:43:34.7                                   ___                        _e                   1
SABA   54.02  11.6 P        06:43:35.2                                   ___                        __                   1
CPD    54.05   8.4 P        06:43:34.7                                   ___                        _e                   1
CPD    54.05   8.4 pmax                                                  ___          2701.0  1.10  __                   1
LSP    54.06   7.0 P        06:43:35.1                                   ___                        _e                   1
LRS    54.20   7.3 P        06:43:35.4                                   ___                        _e                   1
PCDR   54.28   5.4 P        06:43:38.8                                   ___                        _e                   1
ANWB   54.32  13.2 P        06:43:35.9                                   ___                        __                   1
AGPR   54.35   6.9 P        06:43:38.3                                   ___                        _e                   1
QSPA   54.35 180.1 P        06:43:33.073       150.0         2.00        ___  35.7     261.4  0.97  __                   1
QSPA   54.35 180.1 S        06:51:02.223        53.1        15.20        ___   1.9     228.5  1.20  __                   1
QSPA   54.35 180.1 LR       07:05:25.269       158.5        34.70        ___       2300277.4 20.85  __                   1
QSPA   54.35 180.1 PKPPKP   07:13:45.948       296.9         1.20        ___   3.8      49.7  1.04  __                   1
SMRT   54.47  11.7 P        06:43:36.5                                   ___                        __                   1
STVI   54.48   9.4 P        06:43:38.5                                   ___                        _e                   1
RKT    54.58 265.5 P        06:43:40.1                                   ___          1043.2  1.34  _e                   1
RKT    54.58 265.5 S        06:51:18.2                                   ___       1916000.9 28.00  _e                   1
RKT    54.58 265.5 LR       06:59:44.0         122.2                     ___       8427588.4 31.50  _e                   1
RKT    54.58 265.5 T        07:41:50.8                                   ___           145.4  0.22  _e                   1
SDDR   54.59   2.0 P        06:43:40.7                                   ___                        __                   1
SMN1   54.89   4.4 P        06:43:41.1                                   ___                        _e                   1
NVL    54.92 156.2 P        06:43:32.2                                   ___                        _e                   1
NVL    54.92 156.2 S        06:51:13.6                                   ___                        _e                   1
NVL    54.92 156.2 SS       06:55:00.1                                   ___                        _e                   1
NVL    54.92 156.2 MLR                                                   ___        244512.0 19.00  __                   1
NVL    54.92 156.2 pmax                                                  ___          7146.0  1.50  __                   1
GTBY   55.55 357.6 P        06:43:46.9                                   ___                        __                   1
GRTK   57.12   2.1 P        06:43:59.5                                   ___                        __                   1
TEIG   57.65 343.0 P        06:44:01.4                                   ___                        __                   1
TEIG   57.65 343.0 P        06:44:01.24        179.9         5.10        ___  61.6     285.8  0.86  __                   1
ASCN   60.12  77.4 P        06:44:18.6                                   ___                        __                   1
ASCN   60.12  77.4 P        06:44:18.9                                   ___  13.4    7147.9  0.90  __                   1
SBA    61.06 192.1 P        06:44:22.7                                   ___                        _e                   1
SBA    61.06 192.1          06:44:35.5                                   ___                        _e                   1
SBA    61.06 192.1 pmax                                                  ___         10000.0  2.40  __                   1
SBA    61.06 192.1 MLR                                                   ___       1041600.0 21.70  __                   1
VNDA   62.09 191.6 P        06:44:31.6                                   ___                        _e                   1
VNDA   62.09 191.6 P        06:44:28.4                                   ___                        __                   1
VNDA   62.09 191.6          06:45:07.0                                   ___                        __                   1
VNDA   62.09 191.6 S        06:52:50.1                                   ___                        __                   1
VNDA   62.09 191.6 smax                                                  ___                        __                   1
VNDA   62.09 191.6 P        06:44:28.385       127.9         5.70        ___   6.7      53.8  1.06  __                   1
VNDA   62.09 191.6 PcP      06:45:07.0         139.0         4.20        ___   7.4     610.0  1.13  __                   1
VNDA   62.09 191.6 S        06:52:50.125       332.0         4.60        ___   1.4      27.9  0.86  __                   1
VNDA   62.09 191.6 LR       07:09:08.441       135.5        34.00        ___       1744468.1 18.12  __                   1
VNDA   62.09 191.6 PKPPKP   07:13:44.0          31.0         5.90        ___   3.5      32.5  1.16  __                   1
SHEL   62.55  90.3 P        06:44:33.8                                   ___                        __                   1
SHEL   62.55  90.3 P        06:44:43.2                                   ___   9.5   23645.1  2.00  __                   1
SHEL   62.55  90.3 P        06:44:33.7                                   ___                        _e                   1
SHEL   62.55  90.3 pmax                                                  ___         10000.0  1.50  __                   1
SHEL   62.55  90.3 MLR                                                   ___       7436700.0 21.80  __                   1
TBI    66.09 257.7 T        07:56:06.8                                   ___           181.4  0.26  _e                   1
TAOE   66.33 276.3 P        06:45:00.4                                   ___          3524.8  1.26  _e                   1
